{
  "type": "FeatureCollection",
  "features": [
    {
      "type": "Feature",
      "properties": {
        "norad_id": 58701,
        "name": "TIANMU-1 16",
        "group": "weather",
        "lat": 22.98510285383241,
        "lon": 170.85207868463613,
        "alt_km": 493.22478010011037,
        "timestamp": "2025-12-19T04:59:47.942850+00:00",
        "meta_object_name": "TIANMU-1 16",
        "meta_object_id": "2024-004B",
        "meta_epoch": "2025-12-18T22:35:38.700096",
        "meta_mean_motion": 15.2451294,
        "meta_eccentricity": 0.00043181,
        "meta_inclination": 97.4561,
        "meta_ra_of_asc_node": 173.7711,
        "meta_arg_of_pericenter": 268.2512,
        "meta_mean_anomaly": 91.8231,
        "meta_ephemeris_type": 0,
        "meta_classification_type": "U",
        "meta_norad_cat_id": 58701,
        "meta_element_set_no": 999,
        "meta_rev_at_epoch": 10829,
        "meta_bstar": 0.00022252659,
        "meta_mean_motion_dot": 5.401e-05,
        "meta_mean_motion_ddot": 0,
        "tle_line1": "1 58701U 24004B   25352.94142014  .00005401  00000+0  22253-3 0  9999",
        "tle_line2": "2 58701  97.4561 173.7711 0004318 268.2512  91.8231 15.24512940108291"
      },
      "geometry": {
        "type": "Point",
        "coordinates": [
          170.85207868463613,
          22.98510285383241
        ]
      }
    },
    {
      "type": "Feature",
      "properties": {
        "norad_id": 58702,
        "name": "TIANMU-1 17",
        "group": "weather",
        "lat": 69.82601928442075,
        "lon": 15.342159643102784,
        "alt_km": 487.62649656791564,
        "timestamp": "2025-12-19T04:59:47.942861+00:00",
        "meta_object_name": "TIANMU-1 17",
        "meta_object_id": "2024-004C",
        "meta_epoch": "2025-12-18T23:47:43.281024",
        "meta_mean_motion": 15.24557398,
        "meta_eccentricity": 0.00034999,
        "meta_inclination": 97.4594,
        "meta_ra_of_asc_node": 174.2342,
        "meta_arg_of_pericenter": 269.9861,
        "meta_mean_anomaly": 90.0975,
        "meta_ephemeris_type": 0,
        "meta_classification_type": "U",
        "meta_norad_cat_id": 58702,
        "meta_element_set_no": 999,
        "meta_rev_at_epoch": 10829,
        "meta_bstar": 0.00023230524,
        "meta_mean_motion_dot": 5.649e-05,
        "meta_mean_motion_ddot": 0,
        "tle_line1": "1 58702U 24004C   25352.99147316  .00005649  00000+0  23231-3 0  9996",
        "tle_line2": "2 58702  97.4594 174.2342 0003499 269.9861  90.0975 15.24557398108290"
      },
      "geometry": {
        "type": "Point",
        "coordinates": [
          15.342159643102784,
          69.82601928442075
        ]
      }
    },
    {
      "type": "Feature",
      "properties": {
        "norad_id": 58703,
        "name": "TIANMU-1 18",
        "group": "weather",
        "lat": -19.88288432300588,
        "lon": -8.069970956438864,
        "alt_km": 496.67155497449494,
        "timestamp": "2025-12-19T04:59:47.942871+00:00",
        "meta_object_name": "TIANMU-1 18",
        "meta_object_id": "2024-004D",
        "meta_epoch": "2025-12-18T23:23:46.639104",
        "meta_mean_motion": 15.24542677,
        "meta_eccentricity": 0.00028728,
        "meta_inclination": 97.4611,
        "meta_ra_of_asc_node": 174.4143,
        "meta_arg_of_pericenter": 268.4592,
        "meta_mean_anomaly": 91.6316,
        "meta_ephemeris_type": 0,
        "meta_classification_type": "U",
        "meta_norad_cat_id": 58703,
        "meta_element_set_no": 999,
        "meta_rev_at_epoch": 10829,
        "meta_bstar": 0.00022073647,
        "meta_mean_motion_dot": 5.361e-05,
        "meta_mean_motion_ddot": 0,
        "tle_line1": "1 58703U 24004D   25352.97484536  .00005361  00000+0  22074-3 0  9998",
        "tle_line2": "2 58703  97.4611 174.4143 0002872 268.4592  91.6316 15.24542677108291"
      },
      "geometry": {
        "type": "Point",
        "coordinates": [
          -8.069970956438864,
          -19.88288432300588
        ]
      }
    },
    {
      "type": "Feature",
      "properties": {
        "norad_id": 58990,
        "name": "INSAT-3DS",
        "group": "weather",
        "lat": 0.00016908294611276518,
        "lon": -114.90590484351418,
        "alt_km": 35781.74523841798,
        "timestamp": "2025-12-19T04:59:47.942883+00:00",
        "meta_object_name": "INSAT-3DS",
        "meta_object_id": "2024-033A",
        "meta_epoch": "2025-12-18T15:23:52.092960",
        "meta_mean_motion": 1.00272396,
        "meta_eccentricity": 0.00010988,
        "meta_inclination": 0.0507,
        "meta_ra_of_asc_node": 110.1825,
        "meta_arg_of_pericenter": 160.7703,
        "meta_mean_anomaly": 129.6153,
        "meta_ephemeris_type": 0,
        "meta_classification_type": "U",
        "meta_norad_cat_id": 58990,
        "meta_element_set_no": 999,
        "meta_rev_at_epoch": 4525,
        "meta_bstar": 0,
        "meta_mean_motion_dot": -1.31e-06,
        "meta_mean_motion_ddot": 0,
        "tle_line1": "1 58990U 24033A   25352.64157515 -.00000131  00000+0  00000+0 0  9998",
        "tle_line2": "2 58990   0.0507 110.1825 0001098 160.7703 129.6153  1.00272396 45258"
      },
      "geometry": {
        "type": "Point",
        "coordinates": [
          -114.90590484351418,
          0.00016908294611276518
        ]
      }
    },
    {
      "type": "Feature",
      "properties": {
        "norad_id": 59051,
        "name": "METEOR-M2 4",
        "group": "weather",
        "lat": 18.645005408700232,
        "lon": 132.96954398333477,
        "alt_km": 822.2787467889129,
        "timestamp": "2025-12-19T04:59:47.942896+00:00",
        "meta_object_name": "METEOR-M2 4",
        "meta_object_id": "2024-039A",
        "meta_epoch": "2025-12-18T23:10:38.004960",
        "meta_mean_motion": 14.22402231,
        "meta_eccentricity": 0.00067055,
        "meta_inclination": 98.6775,
        "meta_ra_of_asc_node": 309.7772,
        "meta_arg_of_pericenter": 340.2951,
        "meta_mean_anomaly": 19.7967,
        "meta_ephemeris_type": 0,
        "meta_classification_type": "U",
        "meta_norad_cat_id": 59051,
        "meta_element_set_no": 999,
        "meta_rev_at_epoch": 9364,
        "meta_bstar": 2.4145632e-05,
        "meta_mean_motion_dot": 1e-07,
        "meta_mean_motion_ddot": 0,
        "tle_line1": "1 59051U 24039A   25352.96571765  .00000010  00000+0  24146-4 0  9992",
        "tle_line2": "2 59051  98.6775 309.7772 0006705 340.2951  19.7967 14.22402231 93643"
      },
      "geometry": {
        "type": "Point",
        "coordinates": [
          132.96954398333477,
          18.645005408700232
        ]
      }
    },
    {
      "type": "Feature",
      "properties": {
        "norad_id": 60133,
        "name": "GOES 19",
        "group": "weather",
        "lat": 0.001106330080011096,
        "lon": 87.82080540722443,
        "alt_km": 35788.70506089736,
        "timestamp": "2025-12-19T04:59:47.942910+00:00",
        "meta_object_name": "GOES 19",
        "meta_object_id": "2024-119A",
        "meta_epoch": "2025-12-18T19:47:09.819744",
        "meta_mean_motion": 1.00271449,
        "meta_eccentricity": 0.00010616,
        "meta_inclination": 0.0083,
        "meta_ra_of_asc_node": 96.7753,
        "meta_arg_of_pericenter": 227.3458,
        "meta_mean_anomaly": 345.1641,
        "meta_ephemeris_type": 0,
        "meta_classification_type": "U",
        "meta_norad_cat_id": 60133,
        "meta_element_set_no": 999,
        "meta_rev_at_epoch": 515,
        "meta_bstar": 0,
        "meta_mean_motion_dot": -2.23e-06,
        "meta_mean_motion_ddot": 0,
        "tle_line1": "1 60133U 24119A   25352.82441921 -.00000223  00000+0  00000+0 0  9994",
        "tle_line2": "2 60133   0.0083  96.7753 0001061 227.3458 345.1641  1.00271449  5155"
      },
      "geometry": {
        "type": "Point",
        "coordinates": [
          87.82080540722443,
          0.001106330080011096
        ]
      }
    },
    {
      "type": "Feature",
      "properties": {
        "norad_id": 65815,
        "name": "FENGYUN 3H",
        "group": "weather",
        "lat": -18.037692665269955,
        "lon": -64.49727844503909,
        "alt_km": 830.8685770645707,
        "timestamp": "2025-12-19T04:59:47.942921+00:00",
        "meta_object_name": "FENGYUN 3H",
        "meta_object_id": "2025-219A",
        "meta_epoch": "2025-12-18T22:19:03.322848",
        "meta_mean_motion": 14.19906308,
        "meta_eccentricity": 7.043e-05,
        "meta_inclination": 98.6592,
        "meta_ra_of_asc_node": 292.386,
        "meta_arg_of_pericenter": 103.3503,
        "meta_mean_anomaly": 256.7752,
        "meta_ephemeris_type": 0,
        "meta_classification_type": "U",
        "meta_norad_cat_id": 65815,
        "meta_element_set_no": 999,
        "meta_rev_at_epoch": 1180,
        "meta_bstar": 4.3690553e-05,
        "meta_mean_motion_dot": 5e-07,
        "meta_mean_motion_ddot": 0,
        "tle_line1": "1 65815U 25219A   25352.92989957  .00000050  00000+0  43691-4 0  9990",
        "tle_line2": "2 65815  98.6592 292.3860 0000704 103.3503 256.7752 14.19906308 11807"
      },
      "geometry": {
        "type": "Point",
        "coordinates": [
          -64.49727844503909,
          -18.037692665269955
        ]
      }
    }
  ]
}